QIANFAN-49              
1 62250U 24232P   25329.13880050  .00000195  00000+0  28316-3 0  9991
2 62250  89.0041  43.0092 0012782 240.3573 119.6306 13.50973671 65460
QIANFAN-50              
1 62251U 24232Q   25329.08942101  .00000206  00000+0  30066-3 0  9990
2 62251  89.0047  43.0214 0014410 242.6315 117.3370 13.50975131 65483
QIANFAN-51              
1 62252U 24232R   25329.14703346  .00000170  00000+0  24433-3 0  9995
2 62252  89.0041  43.0105 0011808 245.5798 114.4121 13.50973374 65481
QIANFAN-52              
1 62253U 24232S   25329.10177586  .00000219  00000+0  32125-3 0  9994
2 62253  89.0037  42.8894 0013995 238.0107 121.9685 13.50978925 65563
QIANFAN-53              
1 62254U 24232T   25329.08119101  .00000198  00000+0  28865-3 0  9993
2 62254  89.0044  42.9946 0012851 238.7824 121.2069 13.50973907 65524
QIANFAN-54              
1 62255U 24232U   25329.12238293  .00000194  00000+0  28199-3 0  9999
2 62255  89.0035  42.6705 0000145 280.4887  79.6248 13.50974110 97034
QIANFAN-55              
1 62785U 25016A   25329.07454738  .00000127  00000+0  17706-3 0  9994
2 62785  88.9767 105.0316 0018164  44.1458 316.1139 13.50981856 44803
QIANFAN-56              
1 62786U 25016B   25329.09084166  .00000114  00000+0  15801-3 0  9991
2 62786  88.9740 104.8712 0016861  46.7617 313.4939 13.50973165 44856
